[{"OBJECT_NAME":"STARLINK-2171","OBJECT_ID":"2021-017AJ","EPOCH":"2026-03-10T00:00:02.999808","MEAN_MOTION":15.70905931,"ECCENTRICITY":0.0002371,"INCLINATION":53.0436,"RA_OF_ASC_NODE":167.0252,"ARG_OF_PERICENTER":165.5816,"MEAN_ANOMALY":179.0332,"EPHEMERIS_TYPE":0,"CLASSIFICATION_TYPE":"U","NORAD_CAT_ID":47754,"ELEMENT_SET_NO":999,"REV_AT_EPOCH":590,"BSTAR":0.00011207161,"MEAN_MOTION_DOT":0.00013697,"MEAN_MOTION_DDOT":0},{"OBJECT_NAME":"STARLINK-11155 [DTC]","OBJECT_ID":"2024-112J","EPOCH":"2026-03-09T22:48:36.319968","MEAN_MOTION":15.6969903,"ECCENTRICITY":7.43e-5,"INCLINATION":53.1591,"RA_OF_ASC_NODE":264.854,"ARG_OF_PERICENTER":119.3119,"MEAN_ANOMALY":240.7974,"EPHEMERIS_TYPE":0,"CLASSIFICATION_TYPE":"U","NORAD_CAT_ID":60046,"ELEMENT_SET_NO":999,"REV_AT_EPOCH":10102,"BSTAR":1.7837677e-5,"MEAN_MOTION_DOT":1.572e-5,"MEAN_MOTION_DDOT":0}]
